{"type": "FeatureCollection", "atlas": {"layer": "departure", "dataset": "Industrial departures", "feature_count": 68, "freshness": "UPDATED ANNUALLY", "retrieved_at": "2026-08-21", "coverage": "Niagara Region", "name": "Niagara Region Employment Inventory", "url": "https://niagaraopendata.ca", "license": "Open Government Licence 2.0 (Niagara Region)", "attribution": "Contains information licensed under the Open Government Licence – Niagara Region", "derived": "Industrial addresses occupied in an earlier edition and vacant in the latest. Not a listing: a site can be empty and not for sale, or sold and not yet reoccupied.", "editions_used": ["2017", "2018", "2019", "2022"], "baseline": "2017", "latest": "2022", "naics_prefixes": ["31", "32", "33", "41", "48", "49"]}, "features": [{"type": "Feature", "geometry": {"type": "Point", "coordinates": [-78.91013853370103, 42.91075407904929]}, "properties": {"last_seen": "2019", "gone_by": "2022", "business": "Cole International Inc.", "municipality": "Fort Erie", "address": "13 Princess Street", "naics": "488519", "sector": "Transportation and warehousing", "industry": "Other freight transportation arrangement", "size": "1-4 Employees"}}, {"type": "Feature", "geometry": {"type": "Point", "coordinates": [-78.96424071748865, 42.905235208147644]}, "properties": {"last_seen": "2019", "gone_by": "2022", "business": "Krown Rust Control", "municipality": "Fort Erie", "address": "1314 Garrison Road", "naics": "325999", "sector": "Manufacturing", "industry": "All other miscellaneous chemical product manufacturing", "size": "1-4 Employees"}}, {"type": "Feature", "geometry": {"type": "Point", "coordinates": [-79.06496089146609, 42.87192828461714]}, "properties": {"last_seen": "2018", "gone_by": "2022", "business": "Crystal Beach Planing Mill", "municipality": "Fort Erie", "address": "4042 Redstock Road", "naics": "416320", "sector": "Wholesale trade", "industry": "Lumber, plywood and millwork merchant wholesalers", "size": null}}, {"type": "Feature", "geometry": {"type": "Point", "coordinates": [-79.46939189645857, 43.18361524588184]}, "properties": {"last_seen": "2018", "gone_by": "2022", "business": "Central Fabricating and Welding", "municipality": "Lincoln", "address": "4669 Fretz Boulevard", "naics": "332420", "sector": "Manufacturing", "industry": "Metal tank (heavy gauge) manufacturing", "size": null}}, {"type": "Feature", "geometry": {"type": "Point", "coordinates": [-79.46755039010058, 43.18380751007333]}, "properties": {"last_seen": "2018", "gone_by": "2022", "business": "Echo Hill Automation Inc.", "municipality": "Lincoln", "address": "4672 Bartlett Rd.", "naics": "333310", "sector": "Manufacturing", "industry": "Commercial and service industry machinery manufacturing", "size": null}}, {"type": "Feature", "geometry": {"type": "Point", "coordinates": [-79.4694951702259, 43.182122675808]}, "properties": {"last_seen": "2017", "gone_by": "2022", "business": "Echo Hill Automation Inc.", "municipality": "Lincoln", "address": "4860 Union Road", "naics": "333310", "sector": "Manufacturing", "industry": "Commercial and service industry machinery manufacturing", "size": null}}, {"type": "Feature", "geometry": {"type": "Point", "coordinates": [-79.0655854898569, 43.0221194014208]}, "properties": {"last_seen": "2017", "gone_by": "2022", "business": "Intricut Ltd.", "municipality": "Niagara Falls", "address": "10720 Ort Road", "naics": "332710", "sector": "Manufacturing", "industry": "Machine shops", "size": null}}, {"type": "Feature", "geometry": {"type": "Point", "coordinates": [-79.08913518981022, 43.11714503066359]}, "properties": {"last_seen": "2019", "gone_by": "2022", "business": "PMG Rail Services Inc. - Storage Site", "municipality": "Niagara Falls", "address": "3759 Stanley Avenue", "naics": "336510", "sector": "Manufacturing", "industry": "Railroad rolling stock manufacturing", "size": "0 Employees"}}, {"type": "Feature", "geometry": {"type": "Point", "coordinates": [-79.05373318148071, 43.05696150073379]}, "properties": {"last_seen": "2019", "gone_by": "2022", "business": "Jacket Cellar", "municipality": "Niagara Falls", "address": "3883 Main Street Chippawa", "naics": "323113", "sector": "Manufacturing", "industry": "Commercial screen printing", "size": "1-4 Employees"}}, {"type": "Feature", "geometry": {"type": "Point", "coordinates": [-79.0864351084529, 43.1143728498982]}, "properties": {"last_seen": "2019", "gone_by": "2022", "business": "Saturn Scale Systems Inc.", "municipality": "Niagara Falls", "address": "4045 Stanley Avenue", "naics": "333990", "sector": "Manufacturing", "industry": "All other general-purpose machinery manufacturing", "size": "5-9 Employees"}}, {"type": "Feature", "geometry": {"type": "Point", "coordinates": [-79.12222856477591, 43.112975974468256]}, "properties": {"last_seen": "2019", "gone_by": "2022", "business": "Circus World Displays Limited", "municipality": "Niagara Falls", "address": "4080 Montrose Road", "naics": "334310", "sector": "Manufacturing", "industry": "Audio and video equipment manufacturing", "size": "50-99 Employees"}}, {"type": "Feature", "geometry": {"type": "Point", "coordinates": [-79.0946243965564, 43.1127491151803]}, "properties": {"last_seen": "2017", "gone_by": "2022", "business": "Niagara Industrial Mall Ltd.", "municipality": "Niagara Falls", "address": "4256 Carroll Avenue", "naics": "493110", "sector": "Transportation and warehousing", "industry": "General warehousing and storage", "size": null}}, {"type": "Feature", "geometry": {"type": "Point", "coordinates": [-79.1231220482356, 43.1049315194533]}, "properties": {"last_seen": "2017", "gone_by": "2022", "business": "Foamcore Architectural Mouldings", "municipality": "Niagara Falls", "address": "4726 Montrose Road", "naics": "327420", "sector": "Manufacturing", "industry": "Gypsum product manufacturing", "size": null}}, {"type": "Feature", "geometry": {"type": "Point", "coordinates": [-79.0730410696398, 43.104779152486]}, "properties": {"last_seen": "2017", "gone_by": "2022", "business": "Acme Vapours Co. and Acme Juices Co.", "municipality": "Niagara Falls", "address": "4800 Victoria Avenue", "naics": "335210", "sector": "Manufacturing", "industry": "Small electrical appliance manufacturing", "size": null}}, {"type": "Feature", "geometry": {"type": "Point", "coordinates": [-79.0875618802089, 43.0787784596891]}, "properties": {"last_seen": "2017", "gone_by": "2022", "business": "Senkerik Fire Protection Inc. ", "municipality": "Niagara Falls", "address": "5706 Dunn Street", "naics": "417990", "sector": "Wholesale trade", "industry": "All other machinery, equipment and supplies merchant wholesalers", "size": null}}, {"type": "Feature", "geometry": {"type": "Point", "coordinates": [-79.09016096896158, 43.05019612173653]}, "properties": {"last_seen": "2019", "gone_by": "2022", "business": "H and L Tool and Die Ltd.", "municipality": "Niagara Falls", "address": "5795 Don Murie Street", "naics": "332210", "sector": "Manufacturing", "industry": "Cutlery and hand tool manufacturing", "size": "10-19 Employees"}}, {"type": "Feature", "geometry": {"type": "Point", "coordinates": [-79.0925868373184, 43.0545568314442]}, "properties": {"last_seen": "2017", "gone_by": "2022", "business": "Spencerarl Niagara Ltd.", "municipality": "Niagara Falls", "address": "6049 Progress Street", "naics": "336390", "sector": "Manufacturing", "industry": "Other motor vehicle parts manufacturing", "size": null}}, {"type": "Feature", "geometry": {"type": "Point", "coordinates": [-79.0992637886838, 43.11483534761236]}, "properties": {"last_seen": "2018", "gone_by": "2022", "business": "George's Shoe Repair", "municipality": "Niagara Falls", "address": "62408 Thorold Stone Road", "naics": "316210", "sector": "Manufacturing", "industry": "Footwear manufacturing", "size": null}}, {"type": "Feature", "geometry": {"type": "Point", "coordinates": [-79.11410873303373, 43.15718079812532]}, "properties": {"last_seen": "2018", "gone_by": "2022", "business": "Milestone Millwork ", "municipality": "Niagara on the Lake", "address": "1231 York Road", "naics": "321919", "sector": "Manufacturing", "industry": "Other millwork", "size": null}}, {"type": "Feature", "geometry": {"type": "Point", "coordinates": [-79.1462146175898, 43.1475215298675]}, "properties": {"last_seen": "2017", "gone_by": "2022", "business": "Perridiso Estate Winery", "municipality": "Niagara on the Lake", "address": "176 Warner Road Warner Road", "naics": "312130", "sector": "Manufacturing", "industry": "Wineries", "size": null}}, {"type": "Feature", "geometry": {"type": "Point", "coordinates": [-79.10955333588977, 43.24119375615237]}, "properties": {"last_seen": "2019", "gone_by": "2022", "business": "Big Head Wines Inc.", "municipality": "Niagara on the Lake", "address": "304 Hunter Road", "naics": "312130", "sector": "Manufacturing", "industry": "Wineries", "size": "10-19 Employees"}}, {"type": "Feature", "geometry": {"type": "Point", "coordinates": [-79.1735611597974, 43.1907734738288]}, "properties": {"last_seen": "2017", "gone_by": "2022", "business": "Genaire Limited ", "municipality": "Niagara on the Lake", "address": "468 Niagara Stone Road Niagara District Airport", "naics": "417990", "sector": "Wholesale trade", "industry": "All other machinery, equipment and supplies merchant wholesalers", "size": null}}, {"type": "Feature", "geometry": {"type": "Point", "coordinates": [-79.11410873303373, 43.15718079812532]}, "properties": {"last_seen": "2019", "gone_by": "2022", "business": "Milestone Millwork ", "municipality": "Niagara on the Lake", "address": "5900 Thorold Stone Road", "naics": "321919", "sector": "Manufacturing", "industry": "Other millwork", "size": "10-19 Employees"}}, {"type": "Feature", "geometry": {"type": "Point", "coordinates": [-79.32873325059882, 42.98532696431306]}, "properties": {"last_seen": "2019", "gone_by": "2022", "business": "Yager Bros. Inc.", "municipality": "Pelham", "address": "472 Webber Road", "naics": "484239", "sector": "Transportation and warehousing", "industry": "Other specialized freight (except used goods) trucking, long distance", "size": "20-49 Employees"}}, {"type": "Feature", "geometry": {"type": "Point", "coordinates": [-79.3705257882876, 43.052410343199]}, "properties": {"last_seen": "2017", "gone_by": "2022", "business": "Quartz Co.", "municipality": "Pelham", "address": "895 Tice Road", "naics": "327990", "sector": "Manufacturing", "industry": "All other non-metallic mineral product manufacturing", "size": null}}, {"type": "Feature", "geometry": {"type": "Point", "coordinates": [-79.25010144216142, 42.88258539609057]}, "properties": {"last_seen": "2019", "gone_by": "2022", "business": "Allied Marine and Industrial", "municipality": "Port Colborne", "address": "118 West Street", "naics": "332710", "sector": "Manufacturing", "industry": "Machine shops", "size": "50-99 Employees"}}, {"type": "Feature", "geometry": {"type": "Point", "coordinates": [-79.24758189678288, 42.88616342629086]}, "properties": {"last_seen": "2018", "gone_by": "2022", "business": "Snider Dock Servives Ltd.", "municipality": "Port Colborne", "address": "2 Clarence Street East", "naics": "488310", "sector": "Transportation and warehousing", "industry": "Port and harbour operations", "size": null}}, {"type": "Feature", "geometry": {"type": "Point", "coordinates": [-79.2446829527981, 42.9030863267105]}, "properties": {"last_seen": "2017", "gone_by": "2022", "business": "K-Motion Transportation", "municipality": "Port Colborne", "address": "2129 Barber Drive", "naics": "484121", "sector": "Transportation and warehousing", "industry": "General freight trucking, long distance, truck-load", "size": null}}, {"type": "Feature", "geometry": {"type": "Point", "coordinates": [-79.254494410237, 42.8909123239078]}, "properties": {"last_seen": "2017", "gone_by": "2022", "business": "George Badewey Ltd.", "municipality": "Port Colborne", "address": "399 Elm Street", "naics": "413110", "sector": "Wholesale trade", "industry": "General-line food merchant wholesalers", "size": null}}, {"type": "Feature", "geometry": {"type": "Point", "coordinates": [-79.21118517246504, 43.2182735132265]}, "properties": {"last_seen": "2018", "gone_by": "2022", "business": "Cosco Haulage Ltd.", "municipality": "St Catharines", "address": "10 Broadway", "naics": "484121", "sector": "Transportation and warehousing", "industry": "General freight trucking, long distance, truck-load", "size": null}}, {"type": "Feature", "geometry": {"type": "Point", "coordinates": [-79.3000180029311, 43.18990004411053]}, "properties": {"last_seen": "2019", "gone_by": "2022", "business": "Signal Coffee Co.", "municipality": "St Catharines", "address": "1090 Lakeshore Road West", "naics": "311920", "sector": "Manufacturing", "industry": "Coffee and tea manufacturing", "size": "1-4 Employees"}}, {"type": "Feature", "geometry": {"type": "Point", "coordinates": [-79.21782962252495, 43.17081997983941]}, "properties": {"last_seen": "2019", "gone_by": "2022", "business": "Kanes Distributing Ltd.", "municipality": "St Catharines", "address": "115 Dieppe Road", "naics": "333310", "sector": "Manufacturing", "industry": "Commercial and service industry machinery manufacturing", "size": "10-19 Employees"}}, {"type": "Feature", "geometry": {"type": "Point", "coordinates": [-79.2345300316493, 43.1688773556301]}, "properties": {"last_seen": "2017", "gone_by": "2022", "business": "CBC Computer Systems", "municipality": "St Catharines", "address": "122 Niagara Street", "naics": "417910", "sector": "Wholesale trade", "industry": "Office and store machinery and equipment merchant wholesalers", "size": null}}, {"type": "Feature", "geometry": {"type": "Point", "coordinates": [-79.31540099551387, 43.15207572105078]}, "properties": {"last_seen": "2019", "gone_by": "2022", "business": "13th Street Winery", "municipality": "St Catharines", "address": "1776 Fourth Avenue", "naics": "312130", "sector": "Manufacturing", "industry": "Wineries", "size": "20-49 Employees"}}, {"type": "Feature", "geometry": {"type": "Point", "coordinates": [-79.2634352043566, 43.1784009516477]}, "properties": {"last_seen": "2017", "gone_by": "2022", "business": "Torbram Electrical Supply ", "municipality": "St Catharines", "address": "18 Hiscott Street", "naics": "416110", "sector": "Wholesale trade", "industry": "Electrical wiring and construction supplies merchant wholesalers", "size": null}}, {"type": "Feature", "geometry": {"type": "Point", "coordinates": [-79.26343520435657, 43.17840095164765]}, "properties": {"last_seen": "2019", "gone_by": "2022", "business": "City Electric Supply ", "municipality": "St Catharines", "address": "18-20 Hiscott Street", "naics": "416110", "sector": "Wholesale trade", "industry": "Electrical wiring and construction supplies merchant wholesalers", "size": "5-9 Employees"}}, {"type": "Feature", "geometry": {"type": "Point", "coordinates": [-79.20576557088273, 43.22328514116887]}, "properties": {"last_seen": "2019", "gone_by": "2022", "business": "M B B Power Service Inc.", "municipality": "St Catharines", "address": "2 Keefer Road", "naics": "332410", "sector": "Manufacturing", "industry": "Power boiler and heat exchanger manufacturing", "size": "10-19 Employees"}}, {"type": "Feature", "geometry": {"type": "Point", "coordinates": [-79.2487709323197, 43.18416537253413]}, "properties": {"last_seen": "2019", "gone_by": "2022", "business": "Creative Sign Works", "municipality": "St Catharines", "address": "20 Secord Drive", "naics": "339950", "sector": "Manufacturing", "industry": "Sign manufacturing", "size": "1-4 Employees"}}, {"type": "Feature", "geometry": {"type": "Point", "coordinates": [-79.2587617744039, 43.1452021194179]}, "properties": {"last_seen": "2017", "gone_by": "2022", "business": "Regional Mechanical Niagara Inc.", "municipality": "St Catharines", "address": "225 St.Paul Street West", "naics": "416120", "sector": "Wholesale trade", "industry": "Plumbing, heating and air-conditioning equipment and supplies merchant wholesalers", "size": null}}, {"type": "Feature", "geometry": {"type": "Point", "coordinates": [-79.2063353365003, 43.2191025024183]}, "properties": {"last_seen": "2017", "gone_by": "2022", "business": "Landmark Home Solutions", "municipality": "St Catharines", "address": "25 Keefer Road", "naics": "326196", "sector": "Manufacturing", "industry": "Plastic window and door manufacturing", "size": null}}, {"type": "Feature", "geometry": {"type": "Point", "coordinates": [-79.2159972949815, 43.1729074803599]}, "properties": {"last_seen": "2017", "gone_by": "2022", "business": "Peninsula Press Ltd.", "municipality": "St Catharines", "address": "25 Neilson ave", "naics": "323113", "sector": "Manufacturing", "industry": "Commercial screen printing", "size": null}}, {"type": "Feature", "geometry": {"type": "Point", "coordinates": [-79.2368827691181, 43.1654465176752]}, "properties": {"last_seen": "2017", "gone_by": "2022", "business": "Multi Freight Express Inc.", "municipality": "St Catharines", "address": "296 Collier Road South", "naics": "484239", "sector": "Transportation and warehousing", "industry": "Other specialized freight (except used goods) trucking, long distance", "size": null}}, {"type": "Feature", "geometry": {"type": "Point", "coordinates": [-79.22628285313723, 43.17092886885914]}, "properties": {"last_seen": "2019", "gone_by": "2022", "business": "Express Home", "municipality": "St Catharines", "address": "333 Welland Avenue", "naics": "337110", "sector": "Manufacturing", "industry": "Wood kitchen cabinet and counter top manufacturing", "size": "10-19 Employees"}}, {"type": "Feature", "geometry": {"type": "Point", "coordinates": [-79.2040587311539, 43.1415829093535]}, "properties": {"last_seen": "2017", "gone_by": "2022", "business": "CMI Heavy Industries", "municipality": "St Catharines", "address": "423 Glendale Avenue", "naics": "332710", "sector": "Manufacturing", "industry": "Machine shops", "size": null}}, {"type": "Feature", "geometry": {"type": "Point", "coordinates": [-79.2446554176124, 43.1581106700308]}, "properties": {"last_seen": "2017", "gone_by": "2022", "business": "Beechwood Doughnuts", "municipality": "St Catharines", "address": "5 James Street", "naics": "311811", "sector": "Manufacturing", "industry": "Retail bakeries", "size": null}}, {"type": "Feature", "geometry": {"type": "Point", "coordinates": [-79.21190023639856, 43.22137951152979]}, "properties": {"last_seen": "2018", "gone_by": "2022", "business": "Colonial Florists Ltd.", "municipality": "St Catharines", "address": "58 Broadway", "naics": "411130", "sector": "Wholesale trade", "industry": "Nursery stock and plant merchant wholesalers", "size": null}}, {"type": "Feature", "geometry": {"type": "Point", "coordinates": [-79.2510556730416, 43.1626749821705]}, "properties": {"last_seen": "2017", "gone_by": "2022", "business": "Biolyse Pharma", "municipality": "St Catharines", "address": "59 Welland Avenue", "naics": "325410", "sector": "Manufacturing", "industry": "Pharmaceutical and medicine manufacturing", "size": null}}, {"type": "Feature", "geometry": {"type": "Point", "coordinates": [-79.20133421329055, 43.17451924956278]}, "properties": {"last_seen": "2019", "gone_by": "2022", "business": "Amsi", "municipality": "St Catharines", "address": "6 Seapark Drive", "naics": "335315", "sector": "Manufacturing", "industry": "Switchgear and switchboard, and relay and industrial control apparatus manufacturing", "size": "50-99 Employees"}}, {"type": "Feature", "geometry": {"type": "Point", "coordinates": [-79.25251161103996, 43.20672486778979]}, "properties": {"last_seen": "2018", "gone_by": "2022", "business": "Great Lakes Air Cleaning Systems", "municipality": "St Catharines", "address": "720 Lake St", "naics": "417230", "sector": "Wholesale trade", "industry": "Industrial machinery, equipment and supplies merchant wholesalers", "size": null}}, {"type": "Feature", "geometry": {"type": "Point", "coordinates": [-79.17263469454821, 43.04701384526473]}, "properties": {"last_seen": "2018", "gone_by": "2022", "business": "Oxy Vinyls Canada Co.", "municipality": "Thorold", "address": "1332 Thorold Townline Road", "naics": "325210", "sector": "Manufacturing", "industry": "Resin and synthetic rubber manufacturing", "size": null}}, {"type": "Feature", "geometry": {"type": "Point", "coordinates": [-79.24550487953776, 43.06145825174306]}, "properties": {"last_seen": "2018", "gone_by": "2022", "business": "Turf Net Sports Supplies", "municipality": "Thorold", "address": "2255 Highway 20 East", "naics": "414470", "sector": "Wholesale trade", "industry": "Amusement and sporting goods merchant wholesalers", "size": null}}, {"type": "Feature", "geometry": {"type": "Point", "coordinates": [-79.24574149678911, 43.06132576510236]}, "properties": {"last_seen": "2018", "gone_by": "2022", "business": "Power Tech Hydraulics Niagara Ltd.", "municipality": "Thorold", "address": "2265 Highway 20 East", "naics": "332910", "sector": "Manufacturing", "industry": "Metal valve manufacturing", "size": null}}, {"type": "Feature", "geometry": {"type": "Point", "coordinates": [-79.26674815798079, 43.053660543660044]}, "properties": {"last_seen": "2019", "gone_by": "2022", "business": "Quest Hydraulics", "municipality": "Thorold", "address": "2880 Highway 20", "naics": "339990", "sector": "Manufacturing", "industry": "All other miscellaneous manufacturing", "size": "1-4 Employees"}}, {"type": "Feature", "geometry": {"type": "Point", "coordinates": [-79.2004229322175, 43.1133900548793]}, "properties": {"last_seen": "2017", "gone_by": "2022", "business": "C. Lynds and Sons Paving Ltd.", "municipality": "Thorold", "address": "389 Ormond Street South", "naics": "324121", "sector": "Manufacturing", "industry": "Asphalt paving mixture and block manufacturing", "size": null}}, {"type": "Feature", "geometry": {"type": "Point", "coordinates": [-79.2011406901248, 43.1247473162632]}, "properties": {"last_seen": "2017", "gone_by": "2022", "business": "Emerald Trading", "municipality": "Thorold", "address": "9 Front Street South", "naics": "419120", "sector": "Wholesale trade", "industry": "Wholesale trade agents and brokers", "size": null}}, {"type": "Feature", "geometry": {"type": "Point", "coordinates": [-79.23847852094885, 43.02627982756489]}, "properties": {"last_seen": "2018", "gone_by": "2022", "business": "Enerdynamic Hybrid Technologies", "municipality": "Welland", "address": "1110 Hansler Road", "naics": "333416", "sector": "Manufacturing", "industry": "Heating equipment and commercial refrigeration equipment manufacturing", "size": null}}, {"type": "Feature", "geometry": {"type": "Point", "coordinates": [-79.26083703119949, 42.96416236483839]}, "properties": {"last_seen": "2018", "gone_by": "2022", "business": "Metro Paper Box Ltd.", "municipality": "Welland", "address": "12 Clark Street", "naics": "322219", "sector": "Manufacturing", "industry": "Other paperboard container manufacturing", "size": null}}, {"type": "Feature", "geometry": {"type": "Point", "coordinates": [-79.23142718872265, 42.9981778948234]}, "properties": {"last_seen": "2019", "gone_by": "2022", "business": "Panels.ca", "municipality": "Welland", "address": "123 Centre Street", "naics": "321992", "sector": "Manufacturing", "industry": "Prefabricated wood building manufacturing", "size": "50-99 Employees"}}, {"type": "Feature", "geometry": {"type": "Point", "coordinates": [-79.26065868337672, 42.96415965415408]}, "properties": {"last_seen": "2019", "gone_by": "2022", "business": "Heart to Home Meals", "municipality": "Welland", "address": "14 Clark Street", "naics": "311410", "sector": "Manufacturing", "industry": "Frozen food manufacturing", "size": "5-9 Employees"}}, {"type": "Feature", "geometry": {"type": "Point", "coordinates": [-79.25815538537198, 42.97247703230322]}, "properties": {"last_seen": "2018", "gone_by": "2022", "business": "Hopkins Steel Works ", "municipality": "Welland", "address": "2 Broadway", "naics": "332319", "sector": "Manufacturing", "industry": "Other plate work and fabricated structural product manufacturing", "size": null}}, {"type": "Feature", "geometry": {"type": "Point", "coordinates": [-79.2504434340349, 42.9912165130608]}, "properties": {"last_seen": "2017", "gone_by": "2022", "business": "Harpwoods Trophies ", "municipality": "Welland", "address": "22 King Street", "naics": "332999", "sector": "Manufacturing", "industry": "All other miscellaneous fabricated metal product manufacturing", "size": null}}, {"type": "Feature", "geometry": {"type": "Point", "coordinates": [-79.23847852094885, 43.02627982756489]}, "properties": {"last_seen": "2019", "gone_by": "2022", "business": "Enerdynamic Building Systems", "municipality": "Welland", "address": "6040  Progress Street", "naics": "333416", "sector": "Manufacturing", "industry": "Heating equipment and commercial refrigeration equipment manufacturing", "size": "50-99 Employees"}}, {"type": "Feature", "geometry": {"type": "Point", "coordinates": [-79.37697127980829, 42.977237075010684]}, "properties": {"last_seen": "2019", "gone_by": "2022", "business": "First In Counters", "municipality": "Welland", "address": "72000 Regional Road 24, RR3", "naics": "327990", "sector": "Manufacturing", "industry": "All other non-metallic mineral product manufacturing", "size": "10-19 Employees"}}, {"type": "Feature", "geometry": {"type": "Point", "coordinates": [-79.38814651118946, 43.02682251073466]}, "properties": {"last_seen": "2019", "gone_by": "2022", "business": "Oakridge Woodworking", "municipality": "West Lincoln", "address": "1164 Vineland Townline Road", "naics": "337110", "sector": "Manufacturing", "industry": "Wood kitchen cabinet and counter top manufacturing", "size": "10-19 Employees"}}, {"type": "Feature", "geometry": {"type": "Point", "coordinates": [-79.5387962936346, 43.10211279974322]}, "properties": {"last_seen": "2018", "gone_by": "2022", "business": "Stanpac", "municipality": "West Lincoln", "address": "2688 Clifford Street", "naics": "327214", "sector": "Manufacturing", "industry": "Glass manufacturing", "size": null}}, {"type": "Feature", "geometry": {"type": "Point", "coordinates": [-79.53983296569137, 43.09958659273069]}, "properties": {"last_seen": "2019", "gone_by": "2022", "business": "Stanpac", "municipality": "West Lincoln", "address": "2790 Thomson Avenue", "naics": "327214", "sector": "Manufacturing", "industry": "Glass manufacturing", "size": "200-499 Employees"}}, {"type": "Feature", "geometry": {"type": "Point", "coordinates": [-79.5364934953361, 43.10899500482602]}, "properties": {"last_seen": "2019", "gone_by": "2022", "business": "JW Sheldrick Transportation Ltd.", "municipality": "West Lincoln", "address": "2932 Thompson Avenue", "naics": "482112", "sector": "Transportation and warehousing", "industry": "Short-haul freight rail transportation", "size": "5-9 Employees"}}, {"type": "Feature", "geometry": {"type": "Point", "coordinates": [-79.47097761556155, 43.045563801319446]}, "properties": {"last_seen": "2019", "gone_by": "2022", "business": "Niagara Pallet", "municipality": "West Lincoln", "address": "4981 Highway 20", "naics": "321920", "sector": "Manufacturing", "industry": "Wood container and pallet manufacturing", "size": "Business Permanently Closed"}}]}